{
    "links": {
        "self": "http://www.neowsapp.com/rest/v1/neo/3616342?api_key=iIulBulltgU6a56xZRHN4H3l9WmuAYTsLGpBGhQ2"
    },
    "id": "3616342",
    "neo_reference_id": "3616342",
    "name": "(2012 VB5)",
    "designation": "2012 VB5",
    "nasa_jpl_url": "http://ssd.jpl.nasa.gov/sbdb.cgi?sstr=3616342",
    "absolute_magnitude_h": 26.2,
    "estimated_diameter": {
        "kilometers": {
            "estimated_diameter_min": 0.0152951935,
            "estimated_diameter_max": 0.0342010925
        },
        "meters": {
            "estimated_diameter_min": 15.2951935344,
            "estimated_diameter_max": 34.201092472
        },
        "miles": {
            "estimated_diameter_min": 0.0095039897,
            "estimated_diameter_max": 0.021251567
        },
        "feet": {
            "estimated_diameter_min": 50.1810827555,
            "estimated_diameter_max": 112.2083122258
        }
    },
    "is_potentially_hazardous_asteroid": false,
    "close_approach_data": [
        {
            "close_approach_date": "2012-11-09",
            "close_approach_date_full": "2012-Nov-09 11:07",
            "epoch_date_close_approach": 1352459220000,
            "relative_velocity": {
                "kilometers_per_second": "16.8482433691",
                "kilometers_per_hour": "60653.676128702",
                "miles_per_hour": "37687.8355923038"
            },
            "miss_distance": {
                "astronomical": "0.0119439001",
                "lunar": "4.6461771389",
                "kilometers": "1786782.014452787",
                "miles": "1110254.8605789806"
            },
            "orbiting_body": "Earth"
        }
    ],
    "orbital_data": {
        "orbit_id": "7",
        "orbit_determination_date": "2019-07-17 06:09:45",
        "first_observation_date": "2012-11-02",
        "last_observation_date": "2012-11-05",
        "data_arc_in_days": 3,
        "observations_used": 34,
        "orbit_uncertainty": "8",
        "minimum_orbit_intersection": ".0119261",
        "jupiter_tisserand_invariant": "3.448",
        "epoch_osculation": "2456234.5",
        "eccentricity": ".6513075313354816",
        "semi_major_axis": "2.088849379507193",
        "inclination": "5.734695284175642",
        "ascending_node_longitude": "220.4527794296151",
        "orbital_period": "1102.704419254051",
        "perihelion_distance": ".7283660468087105",
        "perihelion_argument": "257.8351619157091",
        "aphelion_distance": "3.449332712205675",
        "perihelion_time": "2456284.497730034117",
        "mean_anomaly": "343.6772370745933",
        "mean_motion": ".3264700800270031",
        "equinox": "J2000",
        "orbit_class": {
            "orbit_class_type": "APO",
            "orbit_class_description": "Near-Earth asteroid orbits which cross the Earth’s orbit similar to that of 1862 Apollo",
            "orbit_class_range": "a (semi-major axis) > 1.0 AU; q (perihelion) < 1.017 AU"
        }
    },
    "is_sentry_object": false
}